{"type": "FeatureCollection", "features": [ {"type": "Feature", "properties": {"norad_id": 28659, "name": "DIRECTV 8", "group": "intelsat", "lat": 0.032149311350328294, "lon": 109.76363371076047, "alt_km": 35797.98841152103, "timestamp": "2025-12-10T09:57:44.371833+00:00", "meta": {"OBJECT_NAME": "DIRECTV 8", "OBJECT_ID": "2005-019A", "EPOCH": "2025-12-09T14:43:08.593824", "MEAN_MOTION": 1.00271975, "ECCENTRICITY": 0.0003178, "INCLINATION": 0.0169, "RA_OF_ASC_NODE": 7.3328, "ARG_OF_PERICENTER": 255.58, "MEAN_ANOMALY": 277.4302, "EPHEMERIS_TYPE": 0, "CLASSIFICATION_TYPE": "U", "NORAD_CAT_ID": 28659, "ELEMENT_SET_NO": 999, "REV_AT_EPOCH": 7517, "BSTAR": 0, "MEAN_MOTION_DOT": 3e-08, "MEAN_MOTION_DDOT": 0}, "tle": {"line1": "1 28659U 05019A   25343.61329391  .00000003  00000+0  00000+0 0  9997", "line2": "2 28659   0.0169   7.3328 0003178 255.5800 277.4302  1.00271975 75172"}}, "geometry": {"type": "Point", "coordinates": [109.76363371076047, 0.032149311350328294]}}, {"type": "Feature", "properties": {"norad_id": 28702, "name": "GALAXY 28 (G-28)", "group": "intelsat", "lat": 2.4146389819968506, "lon": 140.08227499292443, "alt_km": 35791.87429950096, "timestamp": "2025-12-10T09:57:44.371845+00:00", "meta": {"OBJECT_NAME": "GALAXY 28 (G-28)", "OBJECT_ID": "2005-022A", "EPOCH": "2025-12-09T12:29:48.392736", "MEAN_MOTION": 1.00271081, "ECCENTRICITY": 0.00026859, "INCLINATION": 2.8104, "RA_OF_ASC_NODE": 81.3192, "ARG_OF_PERICENTER": 179.8142, "MEAN_ANOMALY": 276.1436, "EPHEMERIS_TYPE": 0, "CLASSIFICATION_TYPE": "U", "NORAD_CAT_ID": 28702, "ELEMENT_SET_NO": 999, "REV_AT_EPOCH": 5007, "BSTAR": 0, "MEAN_MOTION_DOT": -1.85e-06, "MEAN_MOTION_DDOT": 0}, "tle": {"line1": "1 28702U 05022A   25343.52069899 -.00000185  00000+0  00000+0 0  9996", "line2": "2 28702   2.8104  81.3192 0002685 179.8142 276.1436  1.00271081 50074"}}, "geometry": {"type": "Point", "coordinates": [140.08227499292443, 2.4146389819968506]}}, {"type": "Feature", "properties": {"norad_id": 29236, "name": "GALAXY 16 (G-16)", "group": "intelsat", "lat": 0.005203245910222879, "lon": 129.78660496075628, "alt_km": 35792.60547067039, "timestamp": "2025-12-10T09:57:44.371857+00:00", "meta": {"OBJECT_NAME": "GALAXY 16 (G-16)", "OBJECT_ID": "2006-023A", "EPOCH": "2025-12-10T04:31:38.802720", "MEAN_MOTION": 1.00272193, "ECCENTRICITY": 0.0002782, "INCLINATION": 0.0413, "RA_OF_ASC_NODE": 154.4032, "ARG_OF_PERICENTER": 99.6092, "MEAN_ANOMALY": 154.0571, "EPHEMERIS_TYPE": 0, "CLASSIFICATION_TYPE": "U", "NORAD_CAT_ID": 29236, "ELEMENT_SET_NO": 999, "REV_AT_EPOCH": 7107, "BSTAR": 0, "MEAN_MOTION_DOT": -1.23e-06, "MEAN_MOTION_DDOT": 0}, "tle": {"line1": "1 29236U 06023A   25344.18864355 -.00000123  00000+0  00000+0 0  9996", "line2": "2 29236   0.0413 154.4032 0002782  99.6092 154.0571  1.00272193 71078"}}, "geometry": {"type": "Point", "coordinates": [129.78660496075628, 0.005203245910222879]}}, {"type": "Feature", "properties": {"norad_id": 29494, "name": "DIRECTV 9S", "group": "intelsat", "lat": 1.3640939236930616, "lon": 127.56511456326913, "alt_km": 35795.53445677324, "timestamp": "2025-12-10T09:57:44.371874+00:00", "meta": {"OBJECT_NAME": "DIRECTV 9S", "OBJECT_ID": "2006-043A", "EPOCH": "2025-12-10T04:31:38.802720", "MEAN_MOTION": 1.00270776, "ECCENTRICITY": 0.0003126, "INCLINATION": 1.9339, "RA_OF_ASC_NODE": 83.2331, "ARG_OF_PERICENTER": 179.2716, "MEAN_ANOMALY": 143.3579, "EPHEMERIS_TYPE": 0, "CLASSIFICATION_TYPE": "U", "NORAD_CAT_ID": 29494, "ELEMENT_SET_NO": 999, "REV_AT_EPOCH": 4948, "BSTAR": 0, "MEAN_MOTION_DOT": -1.1e-06, "MEAN_MOTION_DDOT": 0}, "tle": {"line1": "1 29494U 06043A   25344.18864355 -.00000110  00000+0  00000+0 0  9990", "line2": "2 29494   1.9339  83.2331 0003126 179.2716 143.3579  1.00270776 49487"}}, "geometry": {"type": "Point", "coordinates": [127.56511456326913, 1.3640939236930616]}}, {"type": "Feature", "properties": {"norad_id": 31307, "name": "GALAXY 17 (G-17)", "group": "intelsat", "lat": 2.19850035049213, "lon": 143.7440791611012, "alt_km": 35790.52468703773, "timestamp": "2025-12-10T09:57:44.371886+00:00", "meta": {"OBJECT_NAME": "GALAXY 17 (G-17)", "OBJECT_ID": "2007-016B", "EPOCH": "2025-12-09T12:27:47.151072", "MEAN_MOTION": 1.00272575, "ECCENTRICITY": 0.00060579, "INCLINATION": 2.4919, "RA_OF_ASC_NODE": 82.3182, "ARG_OF_PERICENTER": 162.3452, "MEAN_ANOMALY": 295.7984, "EPHEMERIS_TYPE": 0, "CLASSIFICATION_TYPE": "U", "NORAD_CAT_ID": 31307, "ELEMENT_SET_NO": 999, "REV_AT_EPOCH": 6790, "BSTAR": 0, "MEAN_MOTION_DOT": -2.04e-06, "MEAN_MOTION_DDOT": 0}, "tle": {"line1": "1 31307U 07016B   25343.51929573 -.00000204  00000+0  00000+0 0  9991", "line2": "2 31307   2.4919  82.3182 0006057 162.3452 295.7984  1.00272575 67901"}}, "geometry": {"type": "Point", "coordinates": [143.7440791611012, 2.19850035049213]}}, {"type": "Feature", "properties": {"norad_id": 31862, "name": "DIRECTV 10", "group": "intelsat", "lat": -0.002073898742496563, "lon": 126.03071195748994, "alt_km": 35786.30658706364, "timestamp": "2025-12-10T09:57:44.371899+00:00", "meta": {"OBJECT_NAME": "DIRECTV 10", "OBJECT_ID": "2007-032A", "EPOCH": "2025-12-09T14:47:45.651840", "MEAN_MOTION": 1.00270135, "ECCENTRICITY": 4.26e-05, "INCLINATION": 0.0152, "RA_OF_ASC_NODE": 159.7626, "ARG_OF_PERICENTER": 48.0937, "MEAN_ANOMALY": 349.9052, "EPHEMERIS_TYPE": 0, "CLASSIFICATION_TYPE": "U", "NORAD_CAT_ID": 31862, "ELEMENT_SET_NO": 999, "REV_AT_EPOCH": 4369, "BSTAR": 0, "MEAN_MOTION_DOT": -1e-06, "MEAN_MOTION_DDOT": 0}, "tle": {"line1": "1 31862U 07032A   25343.61650060 -.00000100  00000+0  00000+0 0  9993", "line2": "2 31862   0.0152 159.7626 0000426  48.0937 349.9052  1.00270135 43692"}}, "geometry": {"type": "Point", "coordinates": [126.03071195748994, -0.002073898742496563]}}, {"type": "Feature", "properties": {"norad_id": 32253, "name": "INTELSAT 11 (IS-11)", "group": "intelsat", "lat": 1.2515098047888225, "lon": 104.64229211897047, "alt_km": 36162.79172352562, "timestamp": "2025-12-10T09:57:44.371910+00:00", "meta": {"OBJECT_NAME": "INTELSAT 11 (IS-11)", "OBJECT_ID": "2007-044B", "EPOCH": "2025-12-09T14:42:38.643264", "MEAN_MOTION": 0.99047626, "ECCENTRICITY": 0.0009092, "INCLINATION": 3.0722, "RA_OF_ASC_NODE": 81.0087, "ARG_OF_PERICENTER": 164.7081, "MEAN_ANOMALY": 292.9928, "EPHEMERIS_TYPE": 0, "CLASSIFICATION_TYPE": "U", "NORAD_CAT_ID": 32253, "ELEMENT_SET_NO": 999, "REV_AT_EPOCH": 6657, "BSTAR": 0, "MEAN_MOTION_DOT": 7.4e-07, "MEAN_MOTION_DDOT": 0}, "tle": {"line1": "1 32253U 07044B   25343.61294726  .00000074  00000+0  00000+0 0  9993", "line2": "2 32253   3.0722  81.0087 0009092 164.7081 292.9928  0.99047626 66570"}}, "geometry": {"type": "Point", "coordinates": [104.64229211897047, 1.2515098047888225]}}, {"type": "Feature", "properties": {"norad_id": 32388, "name": "HORIZONS-2", "group": "intelsat", "lat": 2.015569865854092, "lon": 154.9756913585012, "alt_km": 35795.22534084599, "timestamp": "2025-12-10T09:57:44.371922+00:00", "meta": {"OBJECT_NAME": "HORIZONS-2", "OBJECT_ID": "2007-063B", "EPOCH": "2025-12-09T12:34:03.796320", "MEAN_MOTION": 1.00270503, "ECCENTRICITY": 0.00050202, "INCLINATION": 2.1132, "RA_OF_ASC_NODE": 82.9918, "ARG_OF_PERICENTER": 187.0359, "MEAN_ANOMALY": 283.219, "EPHEMERIS_TYPE": 0, "CLASSIFICATION_TYPE": "U", "NORAD_CAT_ID": 32388, "ELEMENT_SET_NO": 999, "REV_AT_EPOCH": 6591, "BSTAR": 0, "MEAN_MOTION_DOT": -2.51e-06, "MEAN_MOTION_DDOT": 0}, "tle": {"line1": "1 32388U 07063B   25343.52365505 -.00000251  00000+0  00000+0 0  9995", "line2": "2 32388   2.1132  82.9918 0005020 187.0359 283.2190  1.00270503 65916"}}, "geometry": {"type": "Point", "coordinates": [154.9756913585012, 2.015569865854092]}}, {"type": "Feature", "properties": {"norad_id": 32729, "name": "DIRECTV 11", "group": "intelsat", "lat": -0.0007807493529470952, "lon": 129.6255698989478, "alt_km": 35785.519429158274, "timestamp": "2025-12-10T09:57:44.371935+00:00", "meta": {"OBJECT_NAME": "DIRECTV 11", "OBJECT_ID": "2008-013A", "EPOCH": "2025-12-09T10:14:01.462848", "MEAN_MOTION": 1.0027202, "ECCENTRICITY": 4.14e-05, "INCLINATION": 0.0295, "RA_OF_ASC_NODE": 191.9729, "ARG_OF_PERICENTER": 10.0555, "MEAN_ANOMALY": 290.7006, "EPHEMERIS_TYPE": 0, "CLASSIFICATION_TYPE": "U", "NORAD_CAT_ID": 32729, "ELEMENT_SET_NO": 999, "REV_AT_EPOCH": 4369, "BSTAR": 0, "MEAN_MOTION_DOT": -1.23e-06, "MEAN_MOTION_DDOT": 0}, "tle": {"line1": "1 32729U 08013A   25343.42640582 -.00000123  00000+0  00000+0 0  9998", "line2": "2 32729   0.0295 191.9729 0000414  10.0555 290.7006  1.00272020 43694"}}, "geometry": {"type": "Point", "coordinates": [129.6255698989478, -0.0007807493529470952]}}, {"type": "Feature", "properties": {"norad_id": 32951, "name": "GALAXY 18 (G-18)", "group": "intelsat", "lat": 0.01639789602643133, "lon": 105.8036657645001, "alt_km": 35797.999211072936, "timestamp": "2025-12-10T09:57:44.371947+00:00", "meta": {"OBJECT_NAME": "GALAXY 18 (G-18)", "OBJECT_ID": "2008-024A", "EPOCH": "2025-12-10T04:39:38.509344", "MEAN_MOTION": 1.00272828, "ECCENTRICITY": 0.000314, "INCLINATION": 0.0149, "RA_OF_ASC_NODE": 304.7103, "ARG_OF_PERICENTER": 317.9663, "MEAN_ANOMALY": 123.4015, "EPHEMERIS_TYPE": 0, "CLASSIFICATION_TYPE": "U", "NORAD_CAT_ID": 32951, "ELEMENT_SET_NO": 999, "REV_AT_EPOCH": 4395, "BSTAR": 0, "MEAN_MOTION_DOT": 2.8e-07, "MEAN_MOTION_DDOT": 0}, "tle": {"line1": "1 32951U 08024A   25344.19419571  .00000028  00000+0  00000+0 0  9997", "line2": "2 32951   0.0149 304.7103 0003140 317.9663 123.4015  1.00272828 43954"}}, "geometry": {"type": "Point", "coordinates": [105.8036657645001, 0.01639789602643133]}}]}